[{"OBJECT_NAME":"IRIDIUM 134","OBJECT_ID":"2017-083F","EPOCH":"2026-03-09T21:58:07.186944","MEAN_MOTION":14.34217743,"ECCENTRICITY":0.00020775,"INCLINATION":86.4026,"RA_OF_ASC_NODE":3.549,"ARG_OF_PERICENTER":86.3687,"MEAN_ANOMALY":273.7747,"EPHEMERIS_TYPE":0,"CLASSIFICATION_TYPE":"U","NORAD_CAT_ID":43075,"ELEMENT_SET_NO":999,"REV_AT_EPOCH":42987,"BSTAR":2.4162884e-5,"MEAN_MOTION_DOT":8.7e-7,"MEAN_MOTION_DDOT":0},{"OBJECT_NAME":"FENGYUN 1C DEB","OBJECT_ID":"1999-025ASK","EPOCH":"2026-03-09T04:57:46.980000","MEAN_MOTION":14.16623796,"ECCENTRICITY":0.0090249,"INCLINATION":98.9972,"RA_OF_ASC_NODE":143.0006,"ARG_OF_PERICENTER":145.0233,"MEAN_ANOMALY":285.4991,"EPHEMERIS_TYPE":0,"CLASSIFICATION_TYPE":"U","NORAD_CAT_ID":30725,"ELEMENT_SET_NO":999,"REV_AT_EPOCH":97572,"BSTAR":0.0016831946,"MEAN_MOTION_DOT":3.451e-5,"MEAN_MOTION_DDOT":0}]
